ONEWEB-0449             
1 51642U 22012W   22091.58334491 -.00913024  00000+0 -21721+0 0  9998
2 51642  87.4682 345.0461 0017634  67.3561  73.6659 14.56674507  8769
ONEWEB-0451             
1 51643U 22012X   22091.58334491  .00072548  00000+0  68275-2 0  9992
2 51643  87.1897 344.0399 0002303  96.5520 146.0129 14.93511958  8836
ONEWEB-0452             
1 51644U 22012Y   22091.58334491  .00073937  00000+0  69577-2 0  9992
2 51644  87.1891 344.0440 0001266  73.4594 129.0051 14.93508034  8836
ONEWEB-0455             
1 51645U 22012Z   22091.25001157 -.00951741  00000+0 -23144+0 0  9994
2 51645  87.4599 345.1563 0019344  83.4433 268.1461 14.55755903  8705
ONEWEB-0456             
1 51646U 22012AA  22091.58334491 -.00860984  00000+0 -19191+0 0  9996
2 51646  87.4904 345.0294 0019026  76.5557 238.4510 14.59938917  8788
ONEWEB-0457             
1 51647U 22012AB  22091.58334491 -.00904076  00000+0 -20869+0 0  9992
2 51647  87.4802 345.0287 0018011  72.9815 357.7950 14.58028279  8770
ONEWEB-0458             
1 51648U 22012AC  22091.58334491 -.00840252  00000+0 -20074+0 0  9996
2 51648  87.4691 345.0401 0017067  63.0571 177.9291 14.56720207  8773
ONEWEB-0461             
1 51649U 22012AD  22091.25001157 -.00027665  00000+0 -26441-2 0  9993
2 51649  87.2505 344.4031 0002700 113.5021 252.5090 14.93526984  8760
ONEWEB-0463             
1 51650U 22012AE  22091.58334491  .00072284  00000+0  68039-2 0  9995
2 51650  87.1903 344.0424 0001915  42.1107 234.1604 14.93506708  8831
ONEWEB-0464             
1 51651U 22012AF  22090.91667824 -.00966433  00000+0 -21606+0 0  9997
2 51651  87.4748 345.2333 0016760  70.6513  96.7470 14.59696718  3544
ONEWEB-0468             
1 51652U 22012AG  22091.25001157 -.00943412  00000+0 -22633+0 0  9990
2 51652  87.4553 345.1219 0018790  74.7344 358.6740 14.56363854  8705
ONEWEB-0473             
1 51653U 22012AH  22091.25001157 -.00971658  00000+0 -22558+0 0  9990
2 51653  87.4709 345.1389 0017588  66.6937 291.9738 14.57976988  8726
ONEWEB-0474             
1 51654U 22012AJ  22091.25001157 -.01011659  00000+0 -24244+0 0  9992
2 51654  87.4621 345.1618 0018125  84.7326 338.9759 14.56632947  8702
ONEWEB-0475             
1 51655U 22012AK  22091.58334491  .00074156  00000+0  69802-2 0  9999
2 51655  87.1955 344.0713 0001912  64.8458 103.4202 14.93495554  8817
